DIRECTV 11              
1 32729U 08013A   17345.35118587 -.00000132  00000-0  00000-0 0  9990
2 32729   0.0337 134.3543 0000234 298.7132  34.4372  1.00269326 14436
